NORAD_CAT_ID,OBJECT_NAME,OBJECT_TYPE,EPOCH,MEAN_MOTION,ECCENTRICITY,INCLINATION,RA_OF_ASC_NODE,ARG_OF_PERICENTER,MEAN_ANOMALY,BSTAR,MEAN_MOTION_DOT,MEAN_MOTION_DDOT,TLE_LINE0,TLE_LINE1,TLE_LINE2,SEMIMAJOR_AXIS,PERIOD,APOGEE,PERIGEE,DECAYED
53729.0,STARLINK-4651,PAYLOAD,2023-10-05 06:37:09,15.0884892,0.0001714,53.216,273.4987,95.9991,264.1196,0.00017022,2.423e-05,0.0,0 STARLINK-4651,1 53729U 22107AF  23278.27579990  .00002423  00000-0  17022-3 0  9994,2 53729  53.2160 273.4987 0001714  95.9991 264.1196 15.08848920 60763,6917.853,95.437,540.904,538.532,0.0
53729.0,STARLINK-4651,PAYLOAD,2023-10-06 00:06:23,15.08841867,0.0001821,53.2163,270.2297,93.4932,266.6269,0.00011442,1.533e-05,0.0,0 STARLINK-4651,1 53729U 22107AF  23279.00444322  .00001533  00000-0  11442-3 0  9997,2 53729  53.2163 270.2297 0001821  93.4932 266.6269 15.08841867 60246,6917.875,95.437,540.999,538.48,0.0
53729.0,STARLINK-4651,PAYLOAD,2023-10-06 08:03:19,15.08847825,0.0001726,53.2172,268.7414,104.4791,255.6393,0.00018368,2.637e-05,0.0,0 STARLINK-4651,1 53729U 22107AF  23279.33563937  .00002637  00000-0  18368-3 0  9997,2 53729  53.2172 268.7414 0001726 104.4791 255.6393 15.08847825 60920,6917.856,95.437,540.915,538.527,0.0
53729.0,STARLINK-4651,PAYLOAD,2023-10-07 09:29:29,15.08839592,0.000157,53.2174,263.9831,94.244,265.8731,2.7036e-05,1.42e-06,0.0,0 STARLINK-4651,1 53729U 22107AF  23280.39548527  .00000142  00000-0  27036-4 0  9995,2 53729  53.2174 263.9831 0001570  94.2440 265.8731 15.08839592 60455,6917.882,95.438,540.833,538.661,0.0
53729.0,STARLINK-4651,PAYLOAD,2023-10-07 15:51:02,15.08837761,0.0001541,53.2176,262.7933,93.1571,266.9597,-6.5258e-05,-1.326e-05,0.0,0 STARLINK-4651,1 53729U 22107AF  23280.66044557 -.00001326  00000-0 -65258-4 0  9994,2 53729  53.2176 262.7933 0001541  93.1571 266.9597 15.08837761 61121,6917.887,95.438,540.818,538.686,0.0
53729.0,STARLINK-4651,PAYLOAD,2023-10-08 09:20:16,15.08851141,0.0001584,53.2161,259.5222,95.117,265.0003,0.00034805,5.257e-05,0.0,0 STARLINK-4651,1 53729U 22107AF  23281.38908276  .00005257  00000-0  34805-3 0  9999,2 53729  53.2161 259.5222 0001584  95.1170 265.0003 15.08851141 61236,6917.846,95.437,540.807,538.616,0.0
53729.0,STARLINK-4651,PAYLOAD,2023-10-08 15:41:49,15.08849392,0.0001598,53.2166,258.3329,90.7019,269.4157,0.00031796,4.777e-05,0.0,0 STARLINK-4651,1 53729U 22107AF  23281.65404253  .00004777  00000-0  31796-3 0  9997,2 53729  53.2166 258.3329 0001598  90.7019 269.4157 15.08849392 60641,6917.852,95.437,540.822,538.611,0.0
53729.0,STARLINK-4651,PAYLOAD,2023-10-09 02:49:31,15.08845805,0.0001752,53.2164,256.2513,91.8291,268.2902,0.00016552,2.348e-05,0.0,0 STARLINK-4651,1 53729U 22107AF  23282.11772398  .00002348  00000-0  16552-3 0  9992,2 53729  53.2164 256.2513 0001752  91.8291 268.2902 15.08845805 60715,6917.863,95.437,540.94,538.516,0.0
53729.0,STARLINK-4651,PAYLOAD,2023-10-09 07:35:40,15.08848484,0.0001655,53.2165,255.3599,87.0845,273.0336,0.00022131,3.237e-05,0.0,0 STARLINK-4651,1 53729U 22107AF  23282.31644276  .00003237  00000-0  22131-3 0  9995,2 53729  53.2165 255.3599 0001655  87.0845 273.0336 15.08848484 61378,6917.854,95.437,540.864,538.575,0.0
53729.0,STARLINK-4651,PAYLOAD,2023-10-09 15:32:36,15.08838391,0.0001603,53.2164,253.8726,85.772,274.3455,2.8445e-05,1.65e-06,0.0,0 STARLINK-4651,1 53729U 22107AF  23282.64764657  .00000165  00000-0  28445-4 0  9999,2 53729  53.2164 253.8726 0001603  85.7720 274.3455 15.08838391 60799,6917.885,95.438,540.859,538.641,0.0
53729.0,STARLINK-4651,PAYLOAD,2023-10-10 07:26:28,15.08843555,0.0001856,53.2177,250.8958,87.9813,272.1392,0.00010948,1.455e-05,0.0,0 STARLINK-4651,1 53729U 22107AF  23283.31004672  .00001455  00000-0  10948-3 0  9999,2 53729  53.2177 250.8958 0001856  87.9813 272.1392 15.08843555 61520,6917.87,95.437,541.018,538.451,0.0
53729.0,STARLINK-4651,PAYLOAD,2023-10-10 15:23:23,15.08840388,0.0001491,53.2166,249.4116,98.1355,261.9807,8.3246e-05,1.037e-05,0.0,0 STARLINK-4651,1 53729U 22107AF  23283.64124753  .00001037  00000-0  83246-4 0  9996,2 53729  53.2166 249.4116 0001491  98.1355 261.9807 15.08840388 61571,6917.879,95.438,540.776,538.713,0.0
53729.0,STARLINK-4651,PAYLOAD,2023-10-11 02:31:06,15.0883743,0.0001805,53.2171,247.3314,92.7263,267.3936,0.00012096,1.637e-05,0.0,0 STARLINK-4651,1 53729U 22107AF  23284.10493210  .00001637  00000-0  12096-3 0  9995,2 53729  53.2171 247.3314 0001805  92.7263 267.3936 15.08837430 61017,6917.888,95.438,541.002,538.505,0.0
53729.0,STARLINK-4651,PAYLOAD,2023-10-11 07:17:15,15.08842432,0.0001587,53.2159,246.4355,111.0216,249.0946,0.00019599,2.833e-05,0.0,0 STARLINK-4651,1 53729U 22107AF  23284.30364899  .00002833  00000-0  19599-3 0  9991,2 53729  53.2159 246.4355 0001587 111.0216 249.0946 15.08842432 61676,6917.873,95.437,540.836,538.64,0.0
53729.0,STARLINK-4651,PAYLOAD,2023-10-12 03:57:16,15.08843339,0.0001329,53.2166,242.5728,96.0639,264.0505,0.00031192,4.68e-05,0.0,0 STARLINK-4651,1 53729U 22107AF  23285.16477454  .00004680  00000-0  31192-3 0  9993,2 53729  53.2166 242.5728 0001329  96.0639 264.0505 15.08843339 61170,6917.87,95.437,540.655,538.816,0.0
53729.0,STARLINK-4651,PAYLOAD,2023-10-12 07:08:02,15.08847639,0.0001397,53.2163,241.9773,99.0446,261.0704,0.00043919,6.71e-05,0.0,0 STARLINK-4651,1 53729U 22107AF  23285.29725379  .00006710  00000-0  43919-3 0  9995,2 53729  53.2163 241.9773 0001397  99.0446 261.0704 15.08847639 61821,6917.857,95.437,540.688,538.756,0.0
53729.0,STARLINK-4651,PAYLOAD,2023-10-13 13:20:22,15.08848077,0.0001154,53.2166,236.3283,90.4133,269.6991,0.00025348,3.749e-05,0.0,0 STARLINK-4651,1 53729U 22107AF  23286.55581280  .00003749  00000-0  25348-3 0  9991,2 53729  53.2166 236.3283 0001154  90.4133 269.6991 15.08848077 62018,6917.856,95.437,540.519,538.922,0.0
53729.0,STARLINK-4651,PAYLOAD,2023-10-13 21:17:17,15.0884777,0.0001238,53.2176,234.842,91.7895,268.3238,0.00022654,3.32e-05,0.0,0 STARLINK-4651,1 53729U 22107AF  23286.88701147  .00003320  00000-0  22654-3 0  9995,2 53729  53.2176 234.8420 0001238  91.7895 268.3238 15.08847770 62061,6917.857,95.437,540.578,538.865,0.0
53729.0,STARLINK-4651,PAYLOAD,2023-10-14 03:38:49,15.08867551,0.0001272,53.2167,233.6519,107.0744,253.0387,0.00063967,9.915e-05,0.0,0 STARLINK-4651,1 53729U 22107AF  23287.15196354  .00009915  00000-0  63967-3 0  9992,2 53729  53.2167 233.6519 0001272 107.0744 253.0387 15.08867551 61478,6917.796,95.436,540.541,538.781,0.0
53729.0,STARLINK-4651,PAYLOAD,2023-10-14 13:11:08,15.08854642,0.0001722,53.2176,231.866,73.3942,286.7239,0.00041654,6.35e-05,0.0,0 STARLINK-4651,1 53729U 22107AF  23287.54940727  .00006350  00000-0  41654-3 0  9995,2 53729  53.2176 231.8660 0001722  73.3942 286.7239 15.08854642 62163,6917.836,95.437,540.892,538.509,0.0
53729.0,STARLINK-4651,PAYLOAD,2023-10-14 19:32:41,15.08827912,0.0001867,53.217,230.6786,83.5902,276.5303,-0.00039373,-6.547e-05,0.0,0 STARLINK-4651,1 53729U 22107AF  23287.81437456 -.00006547  00000-0 -39373-3 0  9990,2 53729  53.2170 230.6786 0001867  83.5902 276.5303 15.08827912 61575,6917.917,95.438,541.074,538.491,0.0
53729.0,STARLINK-4651,PAYLOAD,2023-10-15 13:01:57,15.08828579,0.0001467,53.218,227.4085,91.4911,268.6249,0.0010898,0.00017093,0.0,0 STARLINK-4651,1 53729U 22107AF  23288.54302530  .00017093  00000-0  10898-2 0  9991,2 53729  53.2180 227.4085 0001467  91.4911 268.6249 15.08828579 62310,6917.915,95.438,540.795,538.765,0.0
53729.0,STARLINK-4651,PAYLOAD,2023-10-16 04:55:48,15.08870136,0.0001415,53.217,224.4343,88.3449,271.7705,0.0018823,0.00029821,0.0,0 STARLINK-4651,1 53729U 22107AF  23289.20542082  .00029821  00000-0  18823-2 0  9991,2 53729  53.2170 224.4343 0001415  88.3449 271.7705 15.08870136 61785,6917.788,95.436,540.632,538.674,0.0
53729.0,STARLINK-4651,PAYLOAD,2023-10-16 19:14:16,15.0886167,0.000166,53.2169,221.7586,88.1132,272.005,0.0012672,0.00019949,0.0,0 STARLINK-4651,1 53729U 22107AF  23289.80158061  .00019949  00000-0  12672-2 0  9993,2 53729  53.2169 221.7586 0001660  88.1132 272.0050 15.08861670 61871,6917.814,95.436,540.828,538.531,0.0
53729.0,STARLINK-4651,PAYLOAD,2023-10-17 04:46:35,15.08865617,0.0001545,53.2169,219.9734,92.8129,267.304,0.0012253,0.0001928,0.0,0 STARLINK-4651,1 53729U 22107AF  23290.19901633  .00019280  00000-0  12253-2 0  9991,2 53729  53.2169 219.9734 0001545  92.8129 267.3040 15.08865617 61933,6917.802,95.436,540.736,538.598,0.0
53729.0,STARLINK-4651,PAYLOAD,2023-10-17 12:43:31,15.08841652,0.0002047,53.2171,218.486,90.3348,269.7879,0.0012792,0.0002013,0.0,0 STARLINK-4651,1 53729U 22107AF  23290.53022103  .00020130  00000-0  12792-2 0  9999,2 53729  53.2171 218.4860 0002047  90.3348 269.7879 15.08841652 62619,6917.875,95.437,541.156,538.324,0.0
53729.0,STARLINK-4651,PAYLOAD,2023-10-18 01:26:36,15.08844698,0.0001679,53.2173,216.1077,106.3719,253.7457,0.0012613,0.00019845,0.0,0 STARLINK-4651,1 53729U 22107AF  23291.06014064  .00019845  00000-0  12613-2 0  9998,2 53729  53.2173 216.1077 0001679 106.3719 253.7457 15.08844698 62692,6917.866,95.437,540.893,538.57,0.0
53729.0,STARLINK-4651,PAYLOAD,2023-10-18 12:34:18,15.08840944,0.000176,53.2171,214.0254,96.4208,263.6985,0.00047688,7.31e-05,0.0,0 STARLINK-4651,1 53729U 22107AF  23291.52382295  .00007310  00000-0  47688-3 0  9998,2 53729  53.2171 214.0254 0001760  96.4208 263.6985 15.08840944 62132,6917.878,95.437,540.96,538.525,0.0
53729.0,STARLINK-4651,PAYLOAD,2023-10-19 04:28:09,15.08862423,0.0001579,53.2171,211.0517,97.6355,262.4816,0.0011735,0.00018449,0.0,0 STARLINK-4651,1 53729U 22107AF  23292.18621874  .00018449  00000-0  11735-2 0  9998,2 53729  53.2171 211.0517 0001579  97.6355 262.4816 15.08862423 62232,6917.812,95.436,540.769,538.585,0.0
53729.0,STARLINK-4651,PAYLOAD,2023-10-19 18:46:37,15.08862586,0.0001388,53.216,208.3762,98.0393,262.0757,0.0010347,0.00016228,0.0,0 STARLINK-4651,1 53729U 22107AF  23292.78237822  .00016228  00000-0  10347-2 0  9991,2 53729  53.2160 208.3762 0001388  98.0393 262.0757 15.08862586 62326,6917.811,95.436,540.637,538.716,0.0
